STARLINK-1333           
1 45580U 20025BB  26068.30145996  .00007828  00000+0  27594-3 0  9994
2 45580  53.1603  79.6121 0001218  85.9757 274.1383 15.30221934325447
STARLINK-1559           
1 46077U 20055BC  26068.23360559  .00042685  00000+0  14779-2 0  9995
2 46077  53.0254  76.0659 0004229  33.9710 326.1559 15.29461733309518
